STARLINK-2022           
1 47643U 21012Z   23210.15312593  .00013468  00000+0  92098-3 0  9999
2 47643  53.0549  16.7051 0001358  97.1755 262.9389 15.06413040135870
